[{"OBJECT_NAME":"ONEWEB-0346","OBJECT_ID":"2021-083AC","EPOCH":"2026-03-09T19:45:35.483040","MEAN_MOTION":13.18684671,"ECCENTRICITY":0.00015166,"INCLINATION":87.9242,"RA_OF_ASC_NODE":355.1993,"ARG_OF_PERICENTER":55.9014,"MEAN_ANOMALY":304.2262,"EPHEMERIS_TYPE":0,"CLASSIFICATION_TYPE":"U","NORAD_CAT_ID":49212,"ELEMENT_SET_NO":999,"REV_AT_EPOCH":21688,"BSTAR":0.0001233967,"MEAN_MOTION_DOT":6.2e-7,"MEAN_MOTION_DDOT":0},{"OBJECT_NAME":"DELTA 1 DEB","OBJECT_ID":"1968-002D","EPOCH":"2026-03-07T05:40:26.847840","MEAN_MOTION":12.84891324,"ECCENTRICITY":0.0320809,"INCLINATION":105.3076,"RA_OF_ASC_NODE":177.5747,"ARG_OF_PERICENTER":116.4891,"MEAN_ANOMALY":276.3641,"EPHEMERIS_TYPE":0,"CLASSIFICATION_TYPE":"U","NORAD_CAT_ID":3127,"ELEMENT_SET_NO":999,"REV_AT_EPOCH":72587,"BSTAR":9.2211e-5,"MEAN_MOTION_DOT":-4.3e-7,"MEAN_MOTION_DDOT":0}]
